[{"OBJECT_NAME":"ONEWEB-0511","OBJECT_ID":"2022-138S","EPOCH":"2026-03-09T18:27:01.655424","MEAN_MOTION":13.1972564,"ECCENTRICITY":0.00014259,"INCLINATION":87.924,"RA_OF_ASC_NODE":324.7698,"ARG_OF_PERICENTER":77.9178,"MEAN_ANOMALY":282.2115,"EPHEMERIS_TYPE":0,"CLASSIFICATION_TYPE":"U","NORAD_CAT_ID":54129,"ELEMENT_SET_NO":999,"REV_AT_EPOCH":16372,"BSTAR":-0.00052940947,"MEAN_MOTION_DOT":-1.99e-6,"MEAN_MOTION_DDOT":0},{"OBJECT_NAME":"ATLAS CENTAUR 2","OBJECT_ID":"1963-047A","EPOCH":"2026-03-09T09:44:46.728096","MEAN_MOTION":14.12066161,"ECCENTRICITY":0.05477336,"INCLINATION":30.3512,"RA_OF_ASC_NODE":197.227,"ARG_OF_PERICENTER":77.7875,"MEAN_ANOMALY":288.3499,"EPHEMERIS_TYPE":0,"CLASSIFICATION_TYPE":"U","NORAD_CAT_ID":694,"ELEMENT_SET_NO":999,"REV_AT_EPOCH":13158,"BSTAR":0.00021795899,"MEAN_MOTION_DOT":1.862e-5,"MEAN_MOTION_DDOT":0}]
